SPACEMOBILE-003         
1 61045U 24163A   26198.90793609  .00001261  00000+0  71269-4 0  9999
2 61045  52.9669 168.1687 0004494 202.4394 157.6405 15.20713181102445
SPACEMOBILE-005         
1 61046U 24163B   26198.62847907  .00001625  00000+0  87600-4 0  9990
2 61046  52.9759 169.4054 0008584 203.1415 156.9194 15.20721282102396
SPACEMOBILE-001         
1 61047U 24163C   26198.03530451  .00000145  00000+0  21220-4 0  9991
2 61047  52.9725 171.8417 0007093 199.2363 160.8365 15.20743460102308
SPACEMOBILE-002         
1 61048U 24163D   26198.93926592 -.00012497  00000+0 -54767-3 0  9992
2 61048  52.9786 167.7269 0005541 200.5884 159.4888 15.20685005102444
SPACEMOBILE-004         
1 61049U 24163E   26197.34451693  .00012194  00000+0  56003-3 0  9999
2 61049  52.9692 174.8353 0005984 230.9141 129.1322 15.20779499102200
SPACEMOBILE-006         
1 67232U 25309A   26198.38261852  .00001156  00000+0  70391-4 0  9996
2 67232  52.9933 193.3130 0009874 222.5585 137.4644 15.18659721 31187
SPACEMOBILE-008         
1 69589U 26139A   26198.79545463  .00000311  00000+0  34487-4 0  9991
2 69589  52.9950 123.6019 0005151  62.6150 297.5364 15.12804081  4610
SPACEMOBILE-009         
1 69590U 26139B   26198.92974044  .00000346  00000+0  36570-4 0  9992
2 69590  52.9941 123.0096 0005408  59.0065 301.1457 15.12697715  4632
SPACEMOBILE-010         
1 69591U 26139C   26198.93315104  .00001132  00000+0  81267-4 0  9997
2 69591  52.9947 123.0339 0005386  51.6637 308.4837 15.12535224  4646
